{"type":"FeatureCollection", "features": [
{"type":"Feature","geometry":{"type":"Polygon","coordinates":[[[-95.177673,29.691736],[-95.200976,29.690873],[-95.234542,29.690491],[-95.224137,29.675877],[-95.227966,29.669827],[-95.212417,29.67004],[-95.211227,29.664927],[-95.194689,29.666702],[-95.188104,29.665058],[-95.182803,29.668362],[-95.179105,29.665225],[-95.172266,29.66695],[-95.172712,29.691757],[-95.177673,29.691736]]]},"properties":{"STATEFP10":"48","ZCTA5CE10":"77502","GEOID10":"4877502","CLASSFP10":"B5","MTFCC10":"G6350","FUNCSTAT10":"S","ALAND10":14541491,"AWATER10":0,"INTPTLAT10":"+29.6795177","INTPTLON10":"-095.1997826","PARTFLG10":"N"}},
{"type":"Feature","geometry":{"type":"Polygon","coordinates":[[[-95.128593,29.548957],[-95.17457,29.598036],[-95.179846,29.593609],[-95.181297,29.587062],[-95.173667,29.587176],[-95.168581,29.58212],[-95.168885,29.569464],[-95.141824,29.540414],[-95.157304,29.536147],[-95.168355,29.525998],[-95.164046,29.522338],[-95.148933,29.523728],[-95.157791,29.506806],[-95.152191,29.500611],[-95.160405,29.497649],[-95.151505,29.500388],[-95.148885,29.498703],[-95.141024,29.506488],[-95.129151,29.50539],[-95.124011,29.510484],[-95.117999,29.507195],[-95.113747,29.510608],[-95.104326,29.510734],[-95.106073,29.51686],[-95.099233,29.518408],[-95.094785,29.522587],[-95.095222,29.528923],[-95.110634,29.54322],[-95.111775,29.550431],[-95.125913,29.547963],[-95.128593,29.548957]]]},"properties":{"STATEFP10":"48","ZCTA5CE10":"77598","GEOID10":"4877598","CLASSFP10":"B5","MTFCC10":"G6350","FUNCSTAT10":"S","ALAND10":31342292,"AWATER10":515898,"INTPTLAT10":"+29.5386397","INTPTLON10":"-095.1360996","PARTFLG10":"N"}},
{"type":"Feature","geometry":{"type":"Polygon","coordinates":[[[-95.223826,29.51531],[-95.216422,29.55608],[-95.217649,29.56276],[-95.232111,29.576626],[-95.252362,29.557631],[-95.252492,29.560785],[-95.259666,29.574423],[-95.261522,29.593031],[-95.280063,29.595459],[-95.287902,29.598039],[-95.309375,29.595032],[-95.315912,29.598303],[-95.322077,29.596692],[-95.33164,29.599104],[-95.340471,29.593389],[-95.346489,29.585547],[-95.351907,29.585455],[-95.35068,29.570586],[-95.340199,29.570717],[-95.339807,29.566557],[-95.350585,29.56636],[-95.350445,29.558978],[-95.32831,29.559275],[-95.328156,29.552081],[-95.314376,29.552241],[-95.31444,29.557815],[-95.308696,29.559549],[-95.286199,29.559945],[-95.277443,29.530568],[-95.266296,29.530645],[-95.258051,29.518365],[-95.248875,29.513813],[-95.247568,29.509285],[-95.225911,29.506396],[-95.229113,29.512307],[-95.223826,29.51531]]]},"properties":{"STATEFP10":"48","ZCTA5CE10":"77581","GEOID10":"4877581","CLASSFP10":"B5","MTFCC10":"G6350","FUNCSTAT10":"S","ALAND10":66686482,"AWATER10":113542,"INTPTLAT10":"+29.5615544","INTPTLON10":"-095.2797390","PARTFLG10":"N"}},
{"type":"Feature","geometry":{"type":"Polygon","coordinates":[[[-95.348685,29.757261],[-95.352035,29.76574],[-95.352129,29.772125],[-95.36247,29.772383],[-95.371075,29.764285],[-95.378366,29.750736],[-95.365992,29.744368],[-95.357715,29.754824],[-95.348685,29.757261]]]},"properties":{"STATEFP10":"48","ZCTA5CE10":"77002","GEOID10":"4877002","CLASSFP10":"B5","MTFCC10":"G6350","FUNCSTAT10":"S","ALAND10":5227914,"AWATER10":128033,"INTPTLAT10":"+29.7568447","INTPTLON10":"-095.3656519","PARTFLG10":"N"}},
{"type":"Feature","geometry":{"type":"Polygon","coordinates":[[[-95.216422,29.55608],[-95.223826,29.51531],[-95.225168,29.503974],[-95.233081,29.465566],[-95.226115,29.455012],[-95.208578,29.455018],[-95.208681,29.466347],[-95.199545,29.466614],[-95.193939,29.469716],[-95.178389,29.4678],[-95.17879,29.478638],[-95.175784,29.478769],[-95.160405,29.497649],[-95.152191,29.500611],[-95.157791,29.506806],[-95.148933,29.523728],[-95.164046,29.522338],[-95.168355,29.525998],[-95.157304,29.536147],[-95.141824,29.540414],[-95.168885,29.569464],[-95.176117,29.560889],[-95.178484,29.565664],[-95.173906,29.569424],[-95.181294,29.574477],[-95.193096,29.568012],[-95.203921,29.558851],[-95.212198,29.558641],[-95.216422,29.55608]]]},"properties":{"STATEFP10":"48","ZCTA5CE10":"77546","GEOID10":"4877546","CLASSFP10":"B5","MTFCC10":"G6350","FUNCSTAT10":"S","ALAND10":68305675,"AWATER10":392013,"INTPTLAT10":"+29.5150735","INTPTLON10":"-095.1921328","PARTFLG10":"N"}},
{"type":"Feature","geometry":{"type":"Polygon","coordinates":[[[-95.095222,29.528923],[-95.085926,29.534848],[-95.080106,29.533672],[-95.07851,29.545027],[-95.072472,29.550206],[-95.069201,29.556797],[-95.071561,29.562765],[-95.071377,29.576883],[-95.067181,29.580691],[-95.084043,29.593745],[-95.089656,29.593148],[-95.095381,29.59592],[-95.102896,29.590117],[-95.103296,29.584065],[-95.107867,29.580654],[-95.110412,29.570861],[-95.115614,29.564062],[-95.11944,29.555508],[-95.128593,29.548957],[-95.125913,29.547963],[-95.111775,29.550431],[-95.110634,29.54322],[-95.095222,29.528923]]]},"properties":{"STATEFP10":"48","ZCTA5CE10":"77058","GEOID10":"4877058","CLASSFP10":"B5","MTFCC10":"G6350","FUNCSTAT10":"S","ALAND10":21368323,"AWATER10":2418306,"INTPTLAT10":"+29.5615788","INTPTLON10":"-095.0996259","PARTFLG10":"N"}}
]}
